ONEWEB-0136             
1 47282U 20100AA  24211.53230000  .00000435  00000+0  11733-2 0  9997
2 47282  87.8953 127.5865 0001466  76.2482 283.8810 13.12444755174463
ONEWEB-0137             
1 47283U 20100AB  24211.49012313 -.00000544  00000+0 -15470-2 0  9993
2 47283  87.8949 127.6172 0001960  80.8430 279.2920 13.12442615174367
ONEWEB-0138             
1 47284U 20100AC  24211.85022857  .00000178  00000+0  45950-3 0  9996
2 47284  87.8948 127.5584 0001847  78.7747 281.3589 13.12442955174490
ONEWEB-0139             
1 47285U 20100AD  24211.50812885 -.00000643  00000+0 -18236-2 0  9992
2 47285  87.8954 127.5978 0002963  43.4027 316.7335 13.12437941174520
ONEWEB-0140             
1 47286U 20100AE  24211.84373732  .00000366  00000+0  98314-3 0  9999
2 47286  87.8948 127.5354 0001788  76.1206 284.0122 13.12444012174526
ONEWEB-0141             
1 47287U 20100AF  24211.50783838 -.00001131  00000+0 -31792-2 0  9994
2 47287  87.8948 127.6142 0002168  81.0868 279.0506 13.12452902174476
ONEWEB-0142             
1 47288U 20100AG  24211.78128303 -.00000104  00000+0 -32478-3 0  9997
2 47288  87.8949 127.5409 0001881  85.0652 275.0691 13.12443717174508
ONEWEB-0143             
1 47289U 20100AH  24211.50634864 -.00000124  00000+0 -38063-3 0  9990
2 47289  87.8952 127.6164 0001997  75.4240 284.7110 13.12445013174443
